start=new Date('2022-11-15T00:00:00.000Z').valueOf();
sats=[{"PERIAPSIS":"564.879","PERIOD":"95.971","GP_ID":"217788104","ARG_OF_PERICENTER":"44.5822","ELEMENT_SET_NO":"999","ECCENTRICITY":"0.00008920","CENTER_NAME":"EARTH","REV_AT_EPOCH":"1765","OBJECT_NAME":"STARLINK-4411","INCLINATION":"97.6543","FILE":"3656014","SEMIMAJOR_AXIS":"6943.633","OBJECT_ID":"2022-084P","SITE":"AFWTR","RA_OF_ASC_NODE":"18.2104","LAUNCH_DATE":"2022-07-22","RCS_SIZE":"LARGE","MEAN_ELEMENT_THEORY":"SGP4","MEAN_MOTION_DDOT":"0.0000000000000","TLE_LINE1":"1 53202U 22084P   22318.74341926  .00000002  00000-0  48005-5 0  9994","EPOCH":"2022-11-14T17:50:31.424064","MEAN_ANOMALY":"315.5473","COUNTRY_CODE":"US","OBJECT_TYPE":"PAYLOAD","TIME_SYSTEM":"UTC","DECAY_DATE":null,"MEAN_MOTION":"15.00453731","EPHEMERIS_TYPE":"0","TLE_LINE2":"2 53202  97.6543  18.2104 0000892  44.5822 315.5473 15.00453731 17654","BSTAR":"0.00000480050000","NORAD_CAT_ID":"53202","REF_FRAME":"TEME","CLASSIFICATION_TYPE":"U","MEAN_MOTION_DOT":"0.00000002","APOAPSIS":"566.118"},{"OBJECT_ID":"2022-084Q","SEMIMAJOR_AXIS":"6941.136","RA_OF_ASC_NODE":"17.8700","SITE":"AFWTR","LAUNCH_DATE":"2022-07-22","RCS_SIZE":"LARGE","MEAN_ELEMENT_THEORY":"SGP4","MEAN_MOTION_DDOT":"0.0000000000000","TLE_LINE1":"1 53203U 22084Q   22318.75188907  .00007777  00000-0  60936-3 0  9995","EPOCH":"2022-11-14T18:02:43.215648","MEAN_ANOMALY":"227.6246","PERIAPSIS":"561.310","PERIOD":"95.919","GP_ID":"217787569","ARG_OF_PERICENTER":"132.5184","ELEMENT_SET_NO":"999","ECCENTRICITY":"0.00024350","CENTER_NAME":"EARTH","REV_AT_EPOCH":"1763","OBJECT_NAME":"STARLINK-4409","INCLINATION":"97.6549","FILE":"3656014","BSTAR":"0.00060936000000","REF_FRAME":"TEME","CLASSIFICATION_TYPE":"U","NORAD_CAT_ID":"53203","MEAN_MOTION_DOT":"0.00007777","APOAPSIS":"564.691","COUNTRY_CODE":"US","OBJECT_TYPE":"PAYLOAD","TIME_SYSTEM":"UTC","DECAY_DATE":null,"MEAN_MOTION":"15.01263665","EPHEMERIS_TYPE":"0","TLE_LINE2":"2 53203  97.6549  17.8700 0002435 132.5184 227.6246 15.01263665 17637"},{"APOAPSIS":"564.254","MEAN_MOTION_DOT":"-0.00000221","REF_FRAME":"TEME","NORAD_CAT_ID":"53204","CLASSIFICATION_TYPE":"U","BSTAR":"-0.00001258800000","TLE_LINE2":"2 53204  97.6555  17.8755 0001792 112.4538 247.6877 15.01260685 18294","EPHEMERIS_TYPE":"0","MEAN_MOTION":"15.01260685","TIME_SYSTEM":"UTC","DECAY_DATE":null,"COUNTRY_CODE":"US","OBJECT_TYPE":"PAYLOAD","MEAN_ANOMALY":"247.6877","TLE_LINE1":"1 53204U 22084R   22318.75745095 -.00000221  00000-0 -12588-4 0  9993","EPOCH":"2022-11-14T18:10:43.762080","MEAN_MOTION_DDOT":"0.0000000000000","RCS_SIZE":"LARGE","MEAN_ELEMENT_THEORY":"SGP4","LAUNCH_DATE":"2022-07-22","SITE":"AFWTR","RA_OF_ASC_NODE":"17.8755","OBJECT_ID":"2022-084R","SEMIMAJOR_AXIS":"6941.145","INCLINATION":"97.6555","FILE":"3656014","OBJECT_NAME":"STARLINK-4410","ELEMENT_SET_NO":"999","ECCENTRICITY":"0.00017920","CENTER_NAME":"EARTH","REV_AT_EPOCH":"1829","ARG_OF_PERICENTER":"112.4538","GP_ID":"217788568","PERIOD":"95.919","PERIAPSIS":"561.766"},{"BSTAR":"0.00038766000000","NORAD_CAT_ID":"53205","CLASSIFICATION_TYPE":"U","REF_FRAME":"TEME","MEAN_MOTION_DOT":"0.00004925","APOAPSIS":"564.489","OBJECT_TYPE":"PAYLOAD","COUNTRY_CODE":"US","DECAY_DATE":null,"TIME_SYSTEM":"UTC","MEAN_MOTION":"15.01265893","EPHEMERIS_TYPE":"0","TLE_LINE2":"2 53205  97.6559  17.8672 0002155 128.2696 231.8723 15.01265893 17639","OBJECT_ID":"2022-084S","SEMIMAJOR_AXIS":"6941.129","RA_OF_ASC_NODE":"17.8672","SITE":"AFWTR","LAUNCH_DATE":"2022-07-22","MEAN_ELEMENT_THEORY":"SGP4","RCS_SIZE":"LARGE","MEAN_MOTION_DDOT":"0.0000000000000","EPOCH":"2022-11-14T17:57:23.314464","TLE_LINE1":"1 53205U 22084S   22318.74818651  .00004925  00000-0  38766-3 0  9990","MEAN_ANOMALY":"231.8723","PERIAPSIS":"561.498","PERIOD":"95.919","GP_ID":"217787399","ARG_OF_PERICENTER":"128.2696","REV_AT_EPOCH":"1763","ELEMENT_SET_NO":"999","ECCENTRICITY":"0.00021550","CENTER_NAME":"EARTH","OBJECT_NAME":"STARLINK-4397","INCLINATION":"97.6559","FILE":"3656014"},{"APOAPSIS":"564.405","MEAN_MOTION_DOT":"0.00000021","CLASSIFICATION_TYPE":"U","REF_FRAME":"TEME","NORAD_CAT_ID":"53206","BSTAR":"0.00000624600000","TLE_LINE2":"2 53206  97.6555  18.0015 0002016 119.5241 240.6184 15.01262147 18038","EPHEMERIS_TYPE":"0","MEAN_MOTION":"15.01262147","DECAY_DATE":null,"TIME_SYSTEM":"UTC","COUNTRY_CODE":"US","OBJECT_TYPE":"PAYLOAD","MEAN_ANOMALY":"240.6184","TLE_LINE1":"1 53206U 22084T   22318.88544991  .00000021  00000-0  62460-5 0  9992","EPOCH":"2022-11-14T21:15:02.872224","MEAN_MOTION_DDOT":"0.0000000000000","RCS_SIZE":"LARGE","MEAN_ELEMENT_THEORY":"SGP4","LAUNCH_DATE":"2022-07-22","RA_OF_ASC_NODE":"18.0015","SITE":"AFWTR","OBJECT_ID":"2022-084T","SEMIMAJOR_AXIS":"6941.140","INCLINATION":"97.6555","FILE":"3655935","OBJECT_NAME":"STARLINK-4408","ELEMENT_SET_NO":"999","CENTER_NAME":"EARTH","ECCENTRICITY":"0.00020160","REV_AT_EPOCH":"1803","ARG_OF_PERICENTER":"119.5241","GP_ID":"217760543","PERIOD":"95.919","PERIAPSIS":"561.606"},{"PERIAPSIS":"561.796","PERIOD":"95.920","GP_ID":"217787935","ARG_OF_PERICENTER":"124.2569","REV_AT_EPOCH":"1763","ELEMENT_SET_NO":"999","ECCENTRICITY":"0.00017690","CENTER_NAME":"EARTH","OBJECT_NAME":"STARLINK-4413","INCLINATION":"97.6556","FILE":"3656014","OBJECT_ID":"2022-084U","SEMIMAJOR_AXIS":"6941.159","RA_OF_ASC_NODE":"17.8648","SITE":"AFWTR","LAUNCH_DATE":"2022-07-22","MEAN_ELEMENT_THEORY":"SGP4","RCS_SIZE":"LARGE","MEAN_MOTION_DDOT":"0.0000000000000","EPOCH":"2022-11-14T17:54:44.060256","TLE_LINE1":"1 53207U 22084U   22318.74634329  .00004091  00000-0  32291-3 0  9991","MEAN_ANOMALY":"235.8823","OBJECT_TYPE":"PAYLOAD","COUNTRY_CODE":"US","TIME_SYSTEM":"UTC","DECAY_DATE":null,"MEAN_MOTION":"15.01256215","EPHEMERIS_TYPE":"0","TLE_LINE2":"2 53207  97.6556  17.8648 0001769 124.2569 235.8823 15.01256215 17639","BSTAR":"0.00032291000000","REF_FRAME":"TEME","NORAD_CAT_ID":"53207","CLASSIFICATION_TYPE":"U","MEAN_MOTION_DOT":"0.00004091","APOAPSIS":"564.251"},{"OBJECT_TYPE":"PAYLOAD","COUNTRY_CODE":"US","TIME_SYSTEM":"UTC","DECAY_DATE":null,"MEAN_MOTION":"15.01247561","EPHEMERIS_TYPE":"0","TLE_LINE2":"2 53208  97.6550  17.8722 0002068 123.2588 236.8834 15.01247561 17637","BSTAR":"-0.00013965000000","CLASSIFICATION_TYPE":"U","REF_FRAME":"TEME","NORAD_CAT_ID":"53208","MEAN_MOTION_DOT":"-0.00001852","APOAPSIS":"564.486","PERIAPSIS":"561.615","PERIOD":"95.920","GP_ID":"217788255","ARG_OF_PERICENTER":"123.2588","REV_AT_EPOCH":"1763","ECCENTRICITY":"0.00020680","ELEMENT_SET_NO":"999","CENTER_NAME":"EARTH","OBJECT_NAME":"STARLINK-4425","INCLINATION":"97.6550","FILE":"3656014","SEMIMAJOR_AXIS":"6941.185","OBJECT_ID":"2022-084V","SITE":"AFWTR","RA_OF_ASC_NODE":"17.8722","LAUNCH_DATE":"2022-07-22","MEAN_ELEMENT_THEORY":"SGP4","RCS_SIZE":"LARGE","MEAN_MOTION_DDOT":"0.0000000000000","EPOCH":"2022-11-14T18:05:24.087264","TLE_LINE1":"1 53208U 22084V   22318.75375101 -.00001852  00000-0 -13965-3 0  9994","MEAN_ANOMALY":"236.8834"},{"RA_OF_ASC_NODE":"17.8632","SITE":"AFWTR","LAUNCH_DATE":"2022-07-22","OBJECT_ID":"2022-084W","SEMIMAJOR_AXIS":"6941.161","EPOCH":"2022-11-14T17:52:24.955392","TLE_LINE1":"1 53209U 22084W   22318.74473328 -.00002839  00000-0 -21654-3 0  9994","MEAN_ANOMALY":"232.3267","MEAN_ELEMENT_THEORY":"SGP4","RCS_SIZE":"LARGE","MEAN_MOTION_DDOT":"0.0000000000000","PERIOD":"95.920","GP_ID":"217787766","PERIAPSIS":"561.766","OBJECT_NAME":"STARLINK-4423","INCLINATION":"97.6558","FILE":"3656014","ARG_OF_PERICENTER":"127.8122","REV_AT_EPOCH":"1763","ELEMENT_SET_NO":"999","ECCENTRICITY":"0.00018150","CENTER_NAME":"EARTH","REF_FRAME":"TEME","CLASSIFICATION_TYPE":"U","NORAD_CAT_ID":"53209","BSTAR":"-0.00021654000000","APOAPSIS":"564.286","MEAN_MOTION_DOT":"-0.00002839","MEAN_MOTION":"15.01255398","OBJECT_TYPE":"PAYLOAD","COUNTRY_CODE":"US","TIME_SYSTEM":"UTC","DECAY_DATE":null,"TLE_LINE2":"2 53209  97.6558  17.8632 0001815 127.8122 232.3267 15.01255398 17637","EPHEMERIS_TYPE":"0"},{"PERIOD":"95.920","GP_ID":"217788105","PERIAPSIS":"561.854","OBJECT_NAME":"STARLINK-4427","FILE":"3656014","INCLINATION":"97.6558","ARG_OF_PERICENTER":"102.1117","ELEMENT_SET_NO":"999","ECCENTRICITY":"0.00017030","CENTER_NAME":"EARTH","REV_AT_EPOCH":"1817","SITE":"AFWTR","RA_OF_ASC_NODE":"17.8688","LAUNCH_DATE":"2022-07-22","SEMIMAJOR_AXIS":"6941.171","OBJECT_ID":"2022-084X","TLE_LINE1":"1 53210U 22084X   22318.75005348  .00004317  00000-0  34057-3 0  9992","EPOCH":"2022-11-14T18:00:04.620672","MEAN_ANOMALY":"258.0298","RCS_SIZE":"LARGE","MEAN_ELEMENT_THEORY":"SGP4","MEAN_MOTION_DDOT":"0.0000000000000","MEAN_MOTION":"15.01252060","COUNTRY_CODE":"US","OBJECT_TYPE":"PAYLOAD","DECAY_DATE":null,"TIME_SYSTEM":"UTC","TLE_LINE2":"2 53210  97.6558  17.8688 0001703 102.1117 258.0298 15.01252060 18178","EPHEMERIS_TYPE":"0","REF_FRAME":"TEME","CLASSIFICATION_TYPE":"U","NORAD_CAT_ID":"53210","BSTAR":"0.00034057000000","APOAPSIS":"564.218","MEAN_MOTION_DOT":"0.00004317"},{"EPOCH":"2022-11-14T17:46:44.649120","TLE_LINE1":"1 53211U 22084Y   22318.74079455 -.00000385  00000-0 -25402-4 0  9990","MEAN_ANOMALY":"239.5694","MEAN_ELEMENT_THEORY":"SGP4","RCS_SIZE":"LARGE","MEAN_MOTION_DDOT":"0.0000000000000","SITE":"AFWTR","RA_OF_ASC_NODE":"17.8587","LAUNCH_DATE":"2022-07-22","SEMIMAJOR_AXIS":"6941.147","OBJECT_ID":"2022-084Y","OBJECT_NAME":"STARLINK-4419","INCLINATION":"97.6554","FILE":"3656014","ARG_OF_PERICENTER":"120.5747","REV_AT_EPOCH":"1815","ELEMENT_SET_NO":"999","ECCENTRICITY":"0.00021900","CENTER_NAME":"EARTH","PERIOD":"95.919","GP_ID":"217787570","PERIAPSIS":"561.492","APOAPSIS":"564.532","MEAN_MOTION_DOT":"-0.00000385","CLASSIFICATION_TYPE":"U","REF_FRAME":"TEME","NORAD_CAT_ID":"53211","BSTAR":"-0.00002540200000","TLE_LINE2":"2 53211  97.6554  17.8587 0002190 120.5747 239.5694 15.01259941 18154","EPHEMERIS_TYPE":"0","MEAN_MOTION":"15.01259941","OBJECT_TYPE":"PAYLOAD","COUNTRY_CODE":"US","TIME_SYSTEM":"UTC","DECAY_DATE":null}];
